[{"OBJECT_NAME":"OBJECT L","OBJECT_ID":"2023-085L","EPOCH":"2026-03-09T23:02:21.999840","MEAN_MOTION":15.29079976,"ECCENTRICITY":0.0005428,"INCLINATION":97.486,"RA_OF_ASC_NODE":178.8598,"ARG_OF_PERICENTER":50.8528,"MEAN_ANOMALY":309.3193,"EPHEMERIS_TYPE":0,"CLASSIFICATION_TYPE":"U","NORAD_CAT_ID":57014,"ELEMENT_SET_NO":999,"REV_AT_EPOCH":15144,"BSTAR":0.00063462603,"MEAN_MOTION_DOT":0.00017871,"MEAN_MOTION_DDOT":0},{"OBJECT_NAME":"STARLINK-34765","OBJECT_ID":"2025-263X","EPOCH":"2026-03-09T03:10:50.321568","MEAN_MOTION":15.27565968,"ECCENTRICITY":0.00015578,"INCLINATION":43.0007,"RA_OF_ASC_NODE":353.8452,"ARG_OF_PERICENTER":282.6332,"MEAN_ANOMALY":77.4345,"EPHEMERIS_TYPE":0,"CLASSIFICATION_TYPE":"U","NORAD_CAT_ID":66506,"ELEMENT_SET_NO":999,"REV_AT_EPOCH":1881,"BSTAR":0.0013939598,"MEAN_MOTION_DOT":0.0003828,"MEAN_MOTION_DDOT":0}]
